{
  "type": "FeatureCollection",
  "features": [
    {
      "type": "Feature",
      "properties": {
        "norad_id": 31503,
        "name": "FENGYUN 1C DEB",
        "group": "fengyun-1c-debris",
        "lat": 56.95779792819229,
        "lon": 54.27972222599778,
        "alt_km": 789.1813841681505,
        "timestamp": "2025-12-17T13:48:37.837145+00:00",
        "meta_object_name": "FENGYUN 1C DEB",
        "meta_object_id": "1999-025BWS",
        "meta_epoch": "2025-12-07T08:28:57.805248",
        "meta_mean_motion": 14.22556904,
        "meta_eccentricity": 0.00490467,
        "meta_inclination": 100.0987,
        "meta_ra_of_asc_node": 206.6798,
        "meta_arg_of_pericenter": 202.0276,
        "meta_mean_anomaly": 157.879,
        "meta_ephemeris_type": 0,
        "meta_classification_type": "U",
        "meta_norad_cat_id": 31503,
        "meta_element_set_no": 999,
        "meta_rev_at_epoch": 64170,
        "meta_bstar": 0.0017221681,
        "meta_mean_motion_dot": 3.84e-05,
        "meta_mean_motion_ddot": 0,
        "tle_line1": "1 31503U 99025BWS 25341.35344682  .00003840  00000+0  17222-2 0  9997",
        "tle_line2": "2 31503 100.0987 206.6798 0049046 202.0276 157.8790 14.22556904641702"
      },
      "geometry": {
        "type": "Point",
        "coordinates": [
          54.27972222599778,
          56.95779792819229
        ]
      }
    },
    {
      "type": "Feature",
      "properties": {
        "norad_id": 31507,
        "name": "FENGYUN 1C DEB",
        "group": "fengyun-1c-debris",
        "lat": -10.78715717538995,
        "lon": 25.282972654093452,
        "alt_km": 699.1431509941385,
        "timestamp": "2025-12-17T13:48:37.837154+00:00",
        "meta_object_name": "FENGYUN 1C DEB",
        "meta_object_id": "1999-025BWW",
        "meta_epoch": "2025-12-16T21:52:29.070912",
        "meta_mean_motion": 14.52188348,
        "meta_eccentricity": 0.01177435,
        "meta_inclination": 98.1936,
        "meta_ra_of_asc_node": 23.0618,
        "meta_arg_of_pericenter": 65.4905,
        "meta_mean_anomaly": 55.8074,
        "meta_ephemeris_type": 0,
        "meta_classification_type": "U",
        "meta_norad_cat_id": 31507,
        "meta_element_set_no": 999,
        "meta_rev_at_epoch": 98081,
        "meta_bstar": 0.00034289924,
        "meta_mean_motion_dot": 1.474e-05,
        "meta_mean_motion_ddot": 0,
        "tle_line1": "1 31507U 99025BWW 25350.91144758  .00001474  00000+0  34290-3 0  9991",
        "tle_line2": "2 31507  98.1936  23.0618 0117743  65.4905  55.8074 14.52188348980815"
      },
      "geometry": {
        "type": "Point",
        "coordinates": [
          25.282972654093452,
          -10.78715717538995
        ]
      }
    },
    {
      "type": "Feature",
      "properties": {
        "norad_id": 31508,
        "name": "FENGYUN 1C DEB",
        "group": "fengyun-1c-debris",
        "lat": -30.462974958058016,
        "lon": -84.77219528888703,
        "alt_km": 694.1812423436386,
        "timestamp": "2025-12-17T13:48:37.837164+00:00",
        "meta_object_name": "FENGYUN 1C DEB",
        "meta_object_id": "1999-025BWX",
        "meta_epoch": "2025-12-17T06:16:45.647616",
        "meta_mean_motion": 14.62612709,
        "meta_eccentricity": 0.00342454,
        "meta_inclination": 98.6295,
        "meta_ra_of_asc_node": 100.0246,
        "meta_arg_of_pericenter": 310.1884,
        "meta_mean_anomaly": 49.632,
        "meta_ephemeris_type": 0,
        "meta_classification_type": "U",
        "meta_norad_cat_id": 31508,
        "meta_element_set_no": 999,
        "meta_rev_at_epoch": 96990,
        "meta_bstar": 0.0021435442,
        "meta_mean_motion_dot": 0.00010947,
        "meta_mean_motion_ddot": 0,
        "tle_line1": "1 31508U 99025BWX 25351.26163944  .00010947  00000+0  21435-2 0  9990",
        "tle_line2": "2 31508  98.6295 100.0246 0034245 310.1884  49.6320 14.62612709969909"
      },
      "geometry": {
        "type": "Point",
        "coordinates": [
          -84.77219528888703,
          -30.462974958058016
        ]
      }
    },
    {
      "type": "Feature",
      "properties": {
        "norad_id": 31509,
        "name": "FENGYUN 1C DEB",
        "group": "fengyun-1c-debris",
        "lat": 19.916312680245237,
        "lon": -65.97914399924234,
        "alt_km": 805.5172376294595,
        "timestamp": "2025-12-17T13:48:37.837174+00:00",
        "meta_object_name": "FENGYUN 1C DEB",
        "meta_object_id": "1999-025BWY",
        "meta_epoch": "2025-12-16T14:39:18.127008",
        "meta_mean_motion": 13.94917826,
        "meta_eccentricity": 0.02044347,
        "meta_inclination": 99.0216,
        "meta_ra_of_asc_node": 109.7771,
        "meta_arg_of_pericenter": 207.9205,
        "meta_mean_anomaly": 151.0868,
        "meta_ephemeris_type": 0,
        "meta_classification_type": "U",
        "meta_norad_cat_id": 31509,
        "meta_element_set_no": 999,
        "meta_rev_at_epoch": 94016,
        "meta_bstar": 0.0018252018,
        "meta_mean_motion_dot": 2.877e-05,
        "meta_mean_motion_ddot": 0,
        "tle_line1": "1 31509U 99025BWY 25350.61062647  .00002877  00000+0  18252-2 0  9993",
        "tle_line2": "2 31509  99.0216 109.7771 0204434 207.9205 151.0868 13.94917826940160"
      },
      "geometry": {
        "type": "Point",
        "coordinates": [
          -65.97914399924234,
          19.916312680245237
        ]
      }
    },
    {
      "type": "Feature",
      "properties": {
        "norad_id": 31510,
        "name": "FENGYUN 1C DEB",
        "group": "fengyun-1c-debris",
        "lat": 81.37982603388032,
        "lon": -92.4682807476156,
        "alt_km": 819.9884249006591,
        "timestamp": "2025-12-17T13:48:37.837189+00:00",
        "meta_object_name": "FENGYUN 1C DEB",
        "meta_object_id": "1999-025BWZ",
        "meta_epoch": "2025-12-17T05:17:11.181984",
        "meta_mean_motion": 14.24572774,
        "meta_eccentricity": 0.00368935,
        "meta_inclination": 98.5536,
        "meta_ra_of_asc_node": 350.304,
        "meta_arg_of_pericenter": 318.5007,
        "meta_mean_anomaly": 109.7161,
        "meta_ephemeris_type": 0,
        "meta_classification_type": "U",
        "meta_norad_cat_id": 31510,
        "meta_element_set_no": 999,
        "meta_rev_at_epoch": 96551,
        "meta_bstar": 0.0004460773,
        "meta_mean_motion_dot": 1e-05,
        "meta_mean_motion_ddot": 0,
        "tle_line1": "1 31510U 99025BWZ 25351.22026831  .00001000  00000+0  44608-3 0  9990",
        "tle_line2": "2 31510  98.5536 350.3040 0036893 318.5007 109.7161 14.24572774965510"
      },
      "geometry": {
        "type": "Point",
        "coordinates": [
          -92.4682807476156,
          81.37982603388032
        ]
      }
    },
    {
      "type": "Feature",
      "properties": {
        "norad_id": 31511,
        "name": "FENGYUN 1C DEB",
        "group": "fengyun-1c-debris",
        "lat": 38.21314239864121,
        "lon": -12.364983140935466,
        "alt_km": 769.826741198086,
        "timestamp": "2025-12-17T13:48:37.837199+00:00",
        "meta_object_name": "FENGYUN 1C DEB",
        "meta_object_id": "1999-025BXA",
        "meta_epoch": "2025-12-16T16:57:53.904960",
        "meta_mean_motion": 14.28101232,
        "meta_eccentricity": 0.01095882,
        "meta_inclination": 99.069,
        "meta_ra_of_asc_node": 159.5093,
        "meta_arg_of_pericenter": 215.4224,
        "meta_mean_anomaly": 143.9644,
        "meta_ephemeris_type": 0,
        "meta_classification_type": "U",
        "meta_norad_cat_id": 31511,
        "meta_element_set_no": 999,
        "meta_rev_at_epoch": 95857,
        "meta_bstar": 0.0010389411,
        "meta_mean_motion_dot": 2.707e-05,
        "meta_mean_motion_ddot": 0,
        "tle_line1": "1 31511U 99025BXA 25350.70687390  .00002707  00000+0  10389-2 0  9999",
        "tle_line2": "2 31511  99.0690 159.5093 0109588 215.4224 143.9644 14.28101232958578"
      },
      "geometry": {
        "type": "Point",
        "coordinates": [
          -12.364983140935466,
          38.21314239864121
        ]
      }
    },
    {
      "type": "Feature",
      "properties": {
        "norad_id": 31512,
        "name": "FENGYUN 1C DEB",
        "group": "fengyun-1c-debris",
        "lat": -63.49799211530723,
        "lon": -94.76568194921063,
        "alt_km": 851.1148390008693,
        "timestamp": "2025-12-17T13:48:37.837211+00:00",
        "meta_object_name": "FENGYUN 1C DEB",
        "meta_object_id": "1999-025BXB",
        "meta_epoch": "2025-12-15T23:56:08.060928",
        "meta_mean_motion": 14.4382949,
        "meta_eccentricity": 0.01444568,
        "meta_inclination": 98.8041,
        "meta_ra_of_asc_node": 245.4933,
        "meta_arg_of_pericenter": 137.2651,
        "meta_mean_anomaly": 239.346,
        "meta_ephemeris_type": 0,
        "meta_classification_type": "U",
        "meta_norad_cat_id": 31512,
        "meta_element_set_no": 999,
        "meta_rev_at_epoch": 65549,
        "meta_bstar": 0.00029934578,
        "meta_mean_motion_dot": 1.105e-05,
        "meta_mean_motion_ddot": 0,
        "tle_line1": "1 31512U 99025BXB 25349.99731552  .00001105  00000+0  29935-3 0  9998",
        "tle_line2": "2 31512  98.8041 245.4933 0144456 137.2651 239.3460 14.43829490655493"
      },
      "geometry": {
        "type": "Point",
        "coordinates": [
          -94.76568194921063,
          -63.49799211530723
        ]
      }
    }
  ]
}